[
    {
        "Altitude(m)": 611967.2116415895,
        "Argument of Periapsis(deg)": 0.0,
        "Eccentricity": 0.0,
        "Inclination(deg)": 60.0,
        "Latitude(deg)": 59.140260727027915,
        "Longitude(deg)": 106.09209787266344,
        "Mean Anomaly(deg)": 98.18179999999998,
        "RAAN(deg)": 100.0,
        "Satellite Name": "Test1 446",
        "Satellite Number": 446,
        "Semi-Major Axis(m)": 6980739.136638005,
        "Time(s)": 0
    },
    {
        "Altitude(m)": 611934.4114355585,
        "Argument of Periapsis(deg)": 0.00010418945913296404,
        "Eccentricity": 0.0,
        "Inclination(deg)": 60.0,
        "Latitude(deg)": 58.98662242314182,
        "Longitude(deg)": 107.21534657567466,
        "Mean Anomaly(deg)": 98.80190614546183,
        "RAAN(deg)": 99.99957995086025,
        "Satellite Name": "Test1 446",
        "Satellite Number": 446,
        "Semi-Major Axis(m)": 6980739.136638005,
        "Time(s)": 10
    }
]